[{"OBJECT_NAME":"STARLINK-3267","OBJECT_ID":"2021-125AT","EPOCH":"2026-03-09T18:12:44.257248","MEAN_MOTION":15.08838654,"ECCENTRICITY":0.00013459,"INCLINATION":53.2164,"RA_OF_ASC_NODE":238.8097,"ARG_OF_PERICENTER":92.7958,"MEAN_ANOMALY":267.3189,"EPHEMERIS_TYPE":0,"CLASSIFICATION_TYPE":"U","NORAD_CAT_ID":50197,"ELEMENT_SET_NO":999,"REV_AT_EPOCH":23679,"BSTAR":1.3623153e-5,"MEAN_MOTION_DOT":-7.1e-7,"MEAN_MOTION_DDOT":0},{"OBJECT_NAME":"STARLING 3","OBJECT_ID":"2023-100D","EPOCH":"2026-03-09T22:41:57.048288","MEAN_MOTION":15.11145977,"ECCENTRICITY":0.00066311,"INCLINATION":99.5096,"RA_OF_ASC_NODE":65.6477,"ARG_OF_PERICENTER":76.1122,"MEAN_ANOMALY":284.0839,"EPHEMERIS_TYPE":0,"CLASSIFICATION_TYPE":"U","NORAD_CAT_ID":57389,"ELEMENT_SET_NO":999,"REV_AT_EPOCH":14507,"BSTAR":0.00051487914,"MEAN_MOTION_DOT":8.551e-5,"MEAN_MOTION_DDOT":0}]
